{"type": "FeatureCollection", "features": [{"type": "Feature", "geometry": {"type": "Point", "coordinates": [91.2355889, 24.5515794]}, "properties": {"osm_id": 2332892994, "osm_type": "node", "amenity": "hospital", "name": "Ajmiriganj Upazila Health Complex"}}, {"type": "Feature", "geometry": {"type": "Point", "coordinates": [91.363971, 24.5043956]}, "properties": {"osm_id": 2332892995, "osm_type": "node", "amenity": "hospital", "name": "\u09ac\u09be\u09a8\u09bf\u09df\u09be\u099a\u0982 \u098a\u09aa\u099c\u09c7\u09b2\u09be \u09b8\u09cd\u09ac\u09be\u09b8\u09cd\u09a5\u09cd\u09af \u0995\u09ae\u09aa\u09cd\u09b2\u09c7\u0995\u09cd\u09b8"}}, {"type": "Feature", "geometry": {"type": "Point", "coordinates": [91.259973, 24.7425587]}, "properties": {"osm_id": 6123345342, "osm_type": "node", "amenity": "clinic", "name": "Loularchar Commuinity Clinic"}}, {"type": "Feature", "geometry": {"type": "Point", "coordinates": [91.2452853, 24.7494645]}, "properties": {"osm_id": 6123345366, "osm_type": "node", "amenity": "clinic", "name": "Shamarchar commuinity Clinic"}}, {"type": "Feature", "geometry": {"type": "Point", "coordinates": [91.2589565, 24.7459227]}, "properties": {"osm_id": 6123345380, "osm_type": "node", "amenity": "clinic", "name": "Kartikpur Commuinity Clinic"}}, {"type": "Feature", "geometry": {"type": "Point", "coordinates": [91.2311956, 24.7475304]}, "properties": {"osm_id": 6124500126, "osm_type": "node", "amenity": "hospital", "name": "Vojendroganj up health and family welfare centre"}}, {"type": "Feature", "geometry": {"type": "Point", "coordinates": [91.167013, 24.7373919]}, "properties": {"osm_id": 6124500135, "osm_type": "node", "amenity": "clinic", "name": "Uzanyarabad community clinic"}}, {"type": "Feature", "geometry": {"type": "Point", "coordinates": [91.2118392, 24.722412]}, "properties": {"osm_id": 6124500144, "osm_type": "node", "amenity": "clinic", "name": "Kashipur Community Clinic"}}, {"type": "Feature", "geometry": {"type": "Point", "coordinates": [91.1865637, 24.751351]}, "properties": {"osm_id": 6124500161, "osm_type": "node", "amenity": "clinic", "name": "Atgao community clinic"}}, {"type": "Feature", "geometry": {"type": "Point", "coordinates": [91.1597778, 24.7655022]}, "properties": {"osm_id": 6124500176, "osm_type": "node", "amenity": "hospital", "name": "Union health and family welfare center"}}, {"type": "Feature", "geometry": {"type": "Point", "coordinates": [91.2113258, 24.5887635]}, "properties": {"osm_id": 6125239779, "osm_type": "node", "amenity": "clinic", "name": "Srihile community clinic"}}, {"type": "Feature", "geometry": {"type": "Point", "coordinates": [91.1978826, 24.6310885]}, "properties": {"osm_id": 6125242925, "osm_type": "node", "amenity": "clinic", "name": "Adittopur community clinic"}}, {"type": "Feature", "geometry": {"type": "Point", "coordinates": [91.3315987, 24.7125292]}, "properties": {"osm_id": 6281151376, "osm_type": "node", "amenity": "clinic", "name": "Achanpur community clinic"}}]}